{
  "norad_id": 57087,
  "name": "STARLINK-6251",
  "history": [
    {
      "epoch": "2026-03-28T18:21:46.327392Z",
      "apogee_km": 486.4971241844896,
      "perigee_km": 484.5232765226119,
      "latitude_deg": -2.6376363275298815e-06,
      "longitude_deg": -113.74030570779175,
      "height_km": 485.5391082591172,
      "semi_major_axis_km": 6863.64720035355,
      "eccentricity": 0.00014379,
      "inclination_deg": 43.0001,
      "raan_deg": 347.8836,
      "arg_perigee_deg": 255.1969,
      "mean_anomaly_deg": 104.8723,
      "mean_motion_rev_day": 15.26758455
    },
    {
      "epoch": "2026-03-29T02:12:48.338496Z",
      "apogee_km": 486.4871660007293,
      "perigee_km": 484.50632130231133,
      "latitude_deg": 2.74535341120898e-05,
      "longitude_deg": 126.33393575112605,
      "height_km": 485.52936329000016,
      "semi_major_axis_km": 6863.63374365152,
      "eccentricity": 0.0001443,
      "inclination_deg": 43.0,
      "raan_deg": 346.0386,
      "arg_perigee_deg": 255.0275,
      "mean_anomaly_deg": 105.0417,
      "mean_motion_rev_day": 15.26762945
    }
  ]
}